{"type": "FeatureCollection", "features": [{"type": "Feature", "properties": {"norad_id": 25590, "name": "COSMOS 2361", "group": "musson", "lat": -48.52932061895413, "lon": -26.669456867859942, "alt_km": 982.4126517879931, "timestamp": "2025-12-16T08:59:43.430090+00:00", "meta": {"OBJECT_NAME": "COSMOS 2361", "OBJECT_ID": "1998-076A", "EPOCH": "2025-12-15T23:01:27.638688", "MEAN_MOTION": 13.73217889, "ECCENTRICITY": 0.00300759, "INCLINATION": 82.934, "RA_OF_ASC_NODE": 341.7049, "ARG_OF_PERICENTER": 256.2718, "MEAN_ANOMALY": 161.7871, "EPHEMERIS_TYPE": 0, "CLASSIFICATION_TYPE": "U", "NORAD_CAT_ID": 25590, "ELEMENT_SET_NO": 999, "REV_AT_EPOCH": 35155, "BSTAR": 7.1702522e-05, "MEAN_MOTION_DOT": 8.1e-07, "MEAN_MOTION_DDOT": 0}, "tle": {"line1": "1 25590U 98076A   25349.95934767  .00000081  00000+0  71703-4 0  9994", "line2": "2 25590  82.9340 341.7049 0030075 256.2718 161.7871 13.73217889351552"}}, "geometry": {"type": "Point", "coordinates": [-26.669456867859942, -48.52932061895413]}}, {"type": "Feature", "properties": {"norad_id": 26818, "name": "COSMOS 2378", "group": "musson", "lat": 34.95108865386026, "lon": 2.0075738184886505, "alt_km": 1004.804507389269, "timestamp": "2025-12-16T08:59:43.430119+00:00", "meta": {"OBJECT_NAME": "COSMOS 2378", "OBJECT_ID": "2001-023A", "EPOCH": "2025-12-15T19:41:11.148288", "MEAN_MOTION": 13.74142207, "ECCENTRICITY": 0.00325815, "INCLINATION": 82.9272, "RA_OF_ASC_NODE": 357.4406, "ARG_OF_PERICENTER": 196.1914, "MEAN_ANOMALY": 337.571, "EPHEMERIS_TYPE": 0, "CLASSIFICATION_TYPE": "U", "NORAD_CAT_ID": 26818, "ELEMENT_SET_NO": 999, "REV_AT_EPOCH": 22965, "BSTAR": 5.1347142e-05, "MEAN_MOTION_DOT": 6.4e-07, "MEAN_MOTION_DDOT": 0}, "tle": {"line1": "1 26818U 01023A   25349.82026792  .00000064  00000+0  51347-4 0  9993", "line2": "2 26818  82.9272 357.4406 0032581 196.1914 337.5710 13.74142207229657"}}, "geometry": {"type": "Point", "coordinates": [2.0075738184886505, 34.95108865386026]}}, {"type": "Feature", "properties": {"norad_id": 27436, "name": "COSMOS 2389", "group": "musson", "lat": -73.84932769394432, "lon": 149.5886954986639, "alt_km": 1020.2594867537546, "timestamp": "2025-12-16T08:59:43.430132+00:00", "meta": {"OBJECT_NAME": "COSMOS 2389", "OBJECT_ID": "2002-026A", "EPOCH": "2025-12-15T23:20:17.340288", "MEAN_MOTION": 13.75155042, "ECCENTRICITY": 0.004755, "INCLINATION": 82.9505, "RA_OF_ASC_NODE": 304.5915, "ARG_OF_PERICENTER": 51.9667, "MEAN_ANOMALY": 12.754, "EPHEMERIS_TYPE": 0, "CLASSIFICATION_TYPE": "U", "NORAD_CAT_ID": 27436, "ELEMENT_SET_NO": 999, "REV_AT_EPOCH": 18193, "BSTAR": 5.3997368e-05, "MEAN_MOTION_DOT": 6.8e-07, "MEAN_MOTION_DDOT": 0}, "tle": {"line1": "1 27436U 02026A   25349.97242292  .00000068  00000+0  53997-4 0  9992", "line2": "2 27436  82.9505 304.5915 0047550  51.9667  12.7540 13.75155042181939"}}, "geometry": {"type": "Point", "coordinates": [149.5886954986639, -73.84932769394432]}}, {"type": "Feature", "properties": {"norad_id": 27818, "name": "COSMOS 2398", "group": "musson", "lat": 7.364649656942156, "lon": 89.10309973157372, "alt_km": 984.7732372825167, "timestamp": "2025-12-16T08:59:43.430144+00:00", "meta": {"OBJECT_NAME": "COSMOS 2398", "OBJECT_ID": "2003-023A", "EPOCH": "2025-12-15T22:00:22.338144", "MEAN_MOTION": 13.72386015, "ECCENTRICITY": 0.0032675, "INCLINATION": 82.9484, "RA_OF_ASC_NODE": 270.3571, "ARG_OF_PERICENTER": 103.2951, "MEAN_ANOMALY": 327.878, "EPHEMERIS_TYPE": 0, "CLASSIFICATION_TYPE": "U", "NORAD_CAT_ID": 27818, "ELEMENT_SET_NO": 999, "REV_AT_EPOCH": 12860, "BSTAR": 3.6432976e-05, "MEAN_MOTION_DOT": 4.9e-07, "MEAN_MOTION_DDOT": 0}, "tle": {"line1": "1 27818U 03023A   25349.91692521  .00000049  00000+0  36433-4 0  9997", "line2": "2 27818  82.9484 270.3571 0032675 103.2951 327.8780 13.72386015128600"}}, "geometry": {"type": "Point", "coordinates": [89.10309973157372, 7.364649656942156]}}, {"type": "Feature", "properties": {"norad_id": 28380, "name": "COSMOS 2407", "group": "musson", "lat": 58.5143349459665, "lon": -138.15911860046972, "alt_km": 942.6732760880759, "timestamp": "2025-12-16T08:59:43.430155+00:00", "meta": {"OBJECT_NAME": "COSMOS 2407", "OBJECT_ID": "2004-028A", "EPOCH": "2025-12-15T20:33:17.368128", "MEAN_MOTION": 13.76313998, "ECCENTRICITY": 0.00402117, "INCLINATION": 82.9602, "RA_OF_ASC_NODE": 210.5852, "ARG_OF_PERICENTER": 46.3771, "MEAN_ANOMALY": 325.9261, "EPHEMERIS_TYPE": 0, "CLASSIFICATION_TYPE": "U", "NORAD_CAT_ID": 28380, "ELEMENT_SET_NO": 999, "REV_AT_EPOCH": 7466, "BSTAR": 6.3752134e-05, "MEAN_MOTION_DOT": 7.8e-07, "MEAN_MOTION_DDOT": 0}, "tle": {"line1": "1 28380U 04028A   25349.85645102  .00000078  00000+0  63752-4 0  9990", "line2": "2 28380  82.9602 210.5852 0040211  46.3771 325.9261 13.76313998 74660"}}, "geometry": {"type": "Point", "coordinates": [-138.15911860046972, 58.5143349459665]}}, {"type": "Feature", "properties": {"norad_id": 28521, "name": "COSMOS 2414", "group": "musson", "lat": 65.04077486534703, "lon": -13.510083894239736, "alt_km": 900.6995938649779, "timestamp": "2025-12-16T08:59:43.430166+00:00", "meta": {"OBJECT_NAME": "COSMOS 2414", "OBJECT_ID": "2005-002A", "EPOCH": "2025-12-15T22:04:05.071296", "MEAN_MOTION": 13.87903398, "ECCENTRICITY": 0.00410678, "INCLINATION": 82.9489, "RA_OF_ASC_NODE": 182.2554, "ARG_OF_PERICENTER": 130.806, "MEAN_ANOMALY": 229.6678, "EPHEMERIS_TYPE": 0, "CLASSIFICATION_TYPE": "U", "NORAD_CAT_ID": 28521, "ELEMENT_SET_NO": 999, "REV_AT_EPOCH": 5839, "BSTAR": 7.0644113e-05, "MEAN_MOTION_DOT": 1.01e-06, "MEAN_MOTION_DDOT": 0}, "tle": {"line1": "1 28521U 05002A   25349.91950314  .00000101  00000+0  70644-4 0  9996", "line2": "2 28521  82.9489 182.2554 0041067 130.8060 229.6678 13.87903398 58399"}}, "geometry": {"type": "Point", "coordinates": [-13.510083894239736, 65.04077486534703]}}, {"type": "Feature", "properties": {"norad_id": 32052, "name": "COSMOS 2429", "group": "musson", "lat": 79.18383504959321, "lon": 20.785980313155758, "alt_km": 956.7806812364352, "timestamp": "2025-12-16T08:59:43.430177+00:00", "meta": {"OBJECT_NAME": "COSMOS 2429", "OBJECT_ID": "2007-038A", "EPOCH": "2025-12-15T22:07:28.659072", "MEAN_MOTION": 13.75149724, "ECCENTRICITY": 0.00390712, "INCLINATION": 82.9804, "RA_OF_ASC_NODE": 340.9627, "ARG_OF_PERICENTER": 29.1624, "MEAN_ANOMALY": 331.1702, "EPHEMERIS_TYPE": 0, "CLASSIFICATION_TYPE": "U", "NORAD_CAT_ID": 32052, "ELEMENT_SET_NO": 999, "REV_AT_EPOCH": 91646, "BSTAR": 6.7482628e-05, "MEAN_MOTION_DOT": 8e-07, "MEAN_MOTION_DDOT": 0}, "tle": {"line1": "1 32052U 07038A   25349.92185948  .00000080  00000+0  67483-4 0  9998", "line2": "2 32052  82.9804 340.9627 0039071  29.1624 331.1702 13.75149724916466"}}, "geometry": {"type": "Point", "coordinates": [20.785980313155758, 79.18383504959321]}}, {"type": "Feature", "properties": {"norad_id": 35635, "name": "COSMOS 2454", "group": "musson", "lat": -10.9783329486392, "lon": -12.736254124815789, "alt_km": 942.0583269967974, "timestamp": "2025-12-16T08:59:43.430187+00:00", "meta": {"OBJECT_NAME": "COSMOS 2454", "OBJECT_ID": "2009-039A", "EPOCH": "2025-12-15T22:15:24.335136", "MEAN_MOTION": 13.89929031, "ECCENTRICITY": 0.00203829, "INCLINATION": 82.9554, "RA_OF_ASC_NODE": 166.2285, "ARG_OF_PERICENTER": 65.2403, "MEAN_ANOMALY": 47.9084, "EPHEMERIS_TYPE": 0, "CLASSIFICATION_TYPE": "U", "NORAD_CAT_ID": 35635, "ELEMENT_SET_NO": 999, "REV_AT_EPOCH": 83194, "BSTAR": 6.0235159e-05, "MEAN_MOTION_DOT": 9e-07, "MEAN_MOTION_DDOT": 0}, "tle": {"line1": "1 35635U 09039A   25349.92736499  .00000090  00000+0  60235-4 0  9993", "line2": "2 35635  82.9554 166.2285 0020382  65.2403  47.9084 13.89929031831944"}}, "geometry": {"type": "Point", "coordinates": [-12.736254124815789, -10.9783329486392]}}, {"type": "Feature", "properties": {"norad_id": 36519, "name": "COSMOS 2463", "group": "musson", "lat": -7.571590602621577, "lon": 23.100561579260265, "alt_km": 990.7100578321842, "timestamp": "2025-12-16T08:59:43.430198+00:00", "meta": {"OBJECT_NAME": "COSMOS 2463", "OBJECT_ID": "2010-017A", "EPOCH": "2025-12-15T19:52:32.898720", "MEAN_MOTION": 13.71649378, "ECCENTRICITY": 0.00347441, "INCLINATION": 82.961, "RA_OF_ASC_NODE": 24.4431, "ARG_OF_PERICENTER": 279.1449, "MEAN_ANOMALY": 255.1525, "EPHEMERIS_TYPE": 0, "CLASSIFICATION_TYPE": "U", "NORAD_CAT_ID": 36519, "ELEMENT_SET_NO": 999, "REV_AT_EPOCH": 78279, "BSTAR": 5.1047986e-05, "MEAN_MOTION_DOT": 6.1e-07, "MEAN_MOTION_DDOT": 0}, "tle": {"line1": "1 36519U 10017A   25349.82815855  .00000061  00000+0  51048-4 0  9996", "line2": "2 36519  82.9610  24.4431 0034744 279.1449 255.1525 13.71649378782795"}}, "geometry": {"type": "Point", "coordinates": [23.100561579260265, -7.571590602621577]}}]}